ONEWEB-0205             
1 48226U 21031S   25354.86989917 -.00000155  00000+0 -45337-3 0  9992
2 48226  87.8998 325.2213 0001621  85.7747 274.3568 13.14504150224848
ONEWEB-0206             
1 48227U 21031T   25354.91907774  .00000232  00000+0  59085-3 0  9999
2 48227  87.9010 325.2026 0002037  79.8644 280.2715 13.14503202224802
ONEWEB-0182             
1 48228U 21031U   25354.83819225  .00000186  00000+0  46666-3 0  9993
2 48228  87.8997 325.2458 0001815  92.1983 267.9355 13.14503704225004
ONEWEB-0186             
1 48229U 21031V   25355.15375968  .00000102  00000+0  24061-3 0  9994
2 48229  87.9006 325.1609 0001652  83.2339 276.8979 13.14504038224998
ONEWEB-0181             
1 48230U 21031W   25354.90320293  .00000151  00000+0  37404-3 0  9998
2 48230  87.8998 325.2624 0001574  81.4210 278.7098 13.14504345224813
ONEWEB-0188             
1 48231U 21031X   25355.16961115 -.00000149  00000+0 -43726-3 0  9995
2 48231  87.8993 325.2074 0001781  84.9823 275.1510 13.14500060224759
ONEWEB-0220             
1 48232U 21031Y   25355.20925896  .00000249  00000+0  63823-3 0  9996
2 48232  87.9010 325.1485 0001631  87.1600 272.9716 13.14504501225026
ONEWEB-0165             
1 48233U 21031Z   25355.16169375 -.00000017  00000+0 -79732-4 0  9996
2 48233  87.8990 325.1836 0001579  73.7595 286.3708 13.14504272224976
